#aV2022  7 28  0  0  0.00000000     288 DD+AD WGS84 FIT  NGA
## 2220 345600.00000000   300.00000000 59788 0.0000000000000
+   32     1  2  3  4  5  6  7  8  9 10 11 12 13 14 15 16 17
+         18 19 20 21 22 23 24 25 26 27 28 29 30 31 32  0  0
+          0  0  0  0  0  0  0  0  0  0  0  0  0  0  0  0  0
+          0  0  0  0  0  0  0  0  0  0  0  0  0  0  0  0  0
+          0  0  0  0  0  0  0  0  0  0  0  0  0  0  0  0  0
++         2  2  2  2  2  2  2  2  2  2  2  2  2  2  2  2  2
++         2  2  2  2  2  2  2  2  2  2  2  2  2  2  2  0  0
++         0  0  0  0  0  0  0  0  0  0  0  0  0  0  0  0  0
++         0  0  0  0  0  0  0  0  0  0  0  0  0  0  0  0  0
++         0  0  0  0  0  0  0  0  0  0  0  0  0  0  0  0  0
%c cc cc ccc ccc cccc cccc cccc cccc ccccc ccccc ccccc ccccc
%c cc cc ccc ccc cccc cccc cccc cccc ccccc ccccc ccccc ccccc
%f  0.0000000  0.000000000  0.00000000000  0.000000000000000
%f  0.0000000  0.000000000  0.00000000000  0.000000000000000
%i    0    0    0    0      0      0      0      0         0
%i    0    0    0    0      0      0      0      0         0
/*      NGA, ST. LOUIS,MO.                                  
/*   EPHEMERIS COMPUTED FROM 2 DAYS OF DATA                 
/*   EPOCHA v8 SMOOTHER                                     
/*   G2139 IERS2010 SATIGS SATAPC                           
*  2022  7 28 21  5  0.00000000
P  1 -13692.776103  22465.188322  -2116.389969    312.517890                    
V  1  -3145.789916    667.526589  32427.733980     -0.072559                    
P  2  18234.340270 -12192.433526 -14476.415022   -650.461378                    
V  2  -7643.614446  17954.199744 -23560.904597      0.008521                    
P  3 -12633.752890  12615.213835 -19746.396326   -318.926509                    
V  3 -24690.884533  -2655.368930  14296.684827     -0.092286                    
P  4  -5295.755816  18728.092485 -18022.914766   -140.247916                    
V  4 -10957.644462 -20212.654813 -17864.222048      0.047720                    
P  5  23805.790145  -6405.311523   9897.377696    -90.832113                    
V  5  12718.707850   2683.180759 -28217.041176     -0.014074                    
P  6  13321.947613   6277.409031 -22048.733835    403.661471                    
V  6 -15548.864105  23356.511060  -2664.634710      0.150646                    
P  7  -1200.793890  21617.311959  15459.757757    317.405948                    
V  7 -12668.605108  14530.239103 -22382.964080     -0.017425                    
P  8 -10673.348218  11555.781895  21310.061125    -78.146229                    
V  8 -13276.714800 -23756.197572   6564.188176     -0.016764                    
P  9   4852.313131  24233.786284  -9753.510334   -314.263875                    
V  9  -8078.221895  -9664.783320 -28270.491276      0.040252                    
P 10 -18609.250295 -11574.585853  15363.413152   -508.356062                    
V 10  19149.668771   -310.486964  22891.940094     -0.135139                    
P 11  19337.325889  -5926.321049 -17204.648893    -10.374529                    
V 11 -11687.521010  18533.864510 -19550.695427     -0.001245                    
P 12  15627.143523 -10886.486238 -18735.645481   -253.605400                    
V 12  22868.588072   4440.435848  16834.126433     -0.059364                    
P 13  15185.834118  -1385.224507  21604.051712    357.330225                    
V 13   8613.753732  26396.493088  -4154.142266      0.072933                    
P 14  16779.411388  13105.881133  15948.129405   -111.011663                    
V 14 -20327.282567     -4.113165  21292.267765      0.009131                    
P 15   9745.717685 -12951.469408  20573.295543    -41.747204                    
V 15  15993.577237  22105.042364   6518.532009      0.030289                    
P 16 -26273.154298   -562.838261   5003.159278   -517.832666                    
V 16  -6206.602502  -3152.608347 -30789.998060     -0.019415                    
P 17  13133.066068  22385.903914  -5063.255283    642.181010                    
V 17    582.831817   7331.021254  31311.533927      0.043231                    
P 18   1968.812113 -21416.135711  15493.183075     99.238674                    
V 18  12733.946596 -15165.230731 -22685.964154     -0.117564                    
P 19  16107.999606  16097.349402 -14118.553857    189.824644                    
V 19   4585.453745  16830.448786  24633.403162      0.050146                    
P 20  26302.537594   -680.254385  -2551.076995    499.394916                    
V 20  -2920.980505   3822.662346 -31305.898601     -0.031609                    
P 21 -17077.448618  18076.972403   8859.502405    160.881445                    
V 21   2479.056150 -10746.590778  29434.446893     -0.002244                    
P 22 -16754.042090 -13740.275769 -15060.466000    300.238054                    
V 22  -5436.153974 -19144.815194  22711.605557      0.065262                    
P 23  -8034.861864 -14520.106801  20752.258715    -34.849006                    
V 23  26332.182041    162.694122  10191.017689     -0.015114                    
P 24  14349.080715 -21882.469102   2642.870140    184.485192                    
V 24   1698.729008   5258.767506  31169.868644     -0.106272                    
P 25   1078.559849 -15417.014776 -21885.400000    354.509566                    
V 25  27078.783394   1653.624898    438.857115      0.043691                    
P 26 -25878.070688  -4096.203324  -5376.699510    220.767679                    
V 26   6699.303115  -3149.723767 -30021.743918      0.020537                    
P 27 -16720.895783  -2358.891227  20383.133300    220.830203                    
V 27 -11041.660403 -23809.049689 -11310.562265     -0.004201                    
P 28  22812.561076  10073.794110   9297.086437    337.987929                    
V 28 -11397.552054    669.563175  29050.256344      0.024995                    
P 29  -2924.113358 -24522.499456  -9718.520308   -537.800665                    
V 29   6482.699118  10607.937233 -28942.005108     -0.034964                    
P 30   7801.692372  15188.432459  20379.910099   -534.933779                    
V 30 -15627.658434  20600.444988  -9666.148060     -0.007181                    
P 31 -15649.188405  -3947.513636 -21296.697550   -187.548555                    
V 31  14945.534678 -22100.389104  -6471.734578     -0.015015                    
P 32 -15961.808180 -19955.242122  -7445.470836   -188.597230                    
V 32  -2031.420073  -9739.419638  29676.004220     -0.102837                    
EOF
